IRIDIUM 126             
1 42809U 17039G   24107.62480195  .00000096  00000+0  27113-4 0  9994
2 42809  86.3958 324.4571 0002314  92.0226 268.1235 14.34218238356491
IRIDIUM 124             
1 42810U 17039H   24107.84885126  .00001210  00000+0  35387-3 0  9993
2 42810  86.4454 261.0584 0002038  88.4996 271.6438 14.43276623360975
IRIDIUM 128             
1 42811U 17039J   24107.61553805  .00000369  00000+0  12453-3 0  9998
2 42811  86.4014 355.9704 0002246  83.5291 276.6161 14.34220206356520
IRIDIUM 121             
1 42812U 17039K   24107.57406160  .00000054  00000+0  12098-4 0  9992
2 42812  86.3959 324.5007 0002161  87.4500 272.6944 14.34217902356364
IRIDIUM 133             
1 42955U 17061A   24107.78678864  .00000646  00000+0  22350-3 0  9998
2 42955  86.4016 355.9967 0002169  89.8969 270.2475 14.34217853341343
IRIDIUM 100             
1 42956U 17061B   24107.43160569  .00000085  00000+0  23408-4 0  9992
2 42956  86.4014 356.0826 0002256  85.8666 274.2787 14.34217631341293
IRIDIUM 122             
1 42957U 17061C   24107.60919736  .00000028  00000+0  30557-5 0  9991
2 42957  86.4011 356.0064 0002174  84.6735 275.4709 14.34218003341323
IRIDIUM 129             
1 42958U 17061D   24107.42526162  .00000134  00000+0  40816-4 0  9995
2 42958  86.4016 356.1416 0002349  88.3542 271.7922 14.34220234341316
